COSMOS 1975             
1 19573U 88093A   24305.85502788  .00019650  00000+0  96442-3 0  9998
2 19573  82.5243 249.5515 0017046 102.9812 257.3326 15.17847988944220
SL-14 R/B               
1 19574U 88093B   24306.01179251  .00001861  00000+0  21565-3 0  9992
2 19574  82.5296 145.1997 0019724 228.8473 284.0426 14.84842649948842
SL-16 R/B               
1 19650U 88102B   24305.86704238  .00000465  00000+0  25969-3 0  9990
2 19650  70.9976 110.4639 0012878  35.2905 324.9068 14.16031106856986
INTERCOSMOS 24          
1 20261U 89080A   24306.32897312  .00001762  00000+0  52066-3 0  9993
2 20261  82.6071  65.1326 1192753 356.8496   2.5522 12.58441218604304
SL-14 R/B               
1 20262U 89080C   24305.97612358  .00001385  00000+0  42139-3 0  9990
2 20262  82.5899 130.1698 1231856 232.9509 115.2648 12.49964933598020
DELTA 1 R/B             
1 20323U 89089B   24305.79546487  .00002265  00000+0  57734-3 0  9991
2 20323  97.1182 219.3376 0068368 241.2121 118.2199 14.49945920824142
ARIANE 40 R/B           
1 20443U 90005H   24305.78839188  .00001742  00000+0  57485-3 0  9998
2 20443  98.3785   8.3328 0009260 246.7530 113.2684 14.39268969821747
DELTA 2 R/B(1)          
1 20453U 90008B   24306.45895169  .00062575  00000+0  20018-2 0  9990
2 20453  35.6159  69.0474 0180012 140.9623 220.4248 15.17074710850325
COSMOS 2058             
1 20465U 90010A   24305.58359992  .00011003  00000+0  75627-3 0  9995
2 20465  82.4883 171.7162 0011650 196.7896 163.2947 15.05779032888843
SL-14 R/B               
1 20466U 90010B   24305.60205566  .00001870  00000+0  22756-3 0  9992
2 20466  82.5057  11.1824 0021240 125.6714 234.6482 14.82810173855247
SL-14 R/B               
1 20511U 90018B   24306.49816911  .00001704  00000+0  21471-3 0  9990
2 20511  82.5201 323.8586 0014882 274.9405  85.0110 14.81405092870631
HST                     
1 20580U 90037B   24306.23902334  .00018412  00000+0  80415-3 0  9991
2 20580  28.4662 145.1123 0002866  85.7251 274.3670 15.20704127698159
SL-16 R/B               
1 20625U 90046B   24305.89819400  .00000632  00000+0  35113-3 0  9993
2 20625  70.9987 254.8711 0015332 327.3778  32.6396 14.14897058778543
COSMOS 2084             
1 20663U 90055A   24306.19206739  .00012047  00000+0  87024-3 0  9995
2 20663  62.7915 213.5234 0094963 133.0103 227.9003 15.00843085862127
SL-6 R/B(2)             
1 20666U 90055D   24306.50892292  .00009367  00000+0  73505-3 0  9998
2 20666  62.7829 126.8088 0064779 158.0574 202.3321 14.99835769863586
SL-8 R/B                
1 20775U 90078B   24306.49954988  .00030392  00000+0  11376-2 0  9992
2 20775  82.9114 327.6907 0443940 207.8722 149.8062 14.67131930736409
SL-8 R/B                
1 21088U 91006B   24305.75466977  .00000262  00000+0  24803-3 0  9999
2 21088  82.9447 177.4798 0022287 342.0167  82.9518 13.77383299696075
OKEAN-3                 
1 21397U 91039A   24305.87232132  .00011676  00000+0  93178-3 0  9997
2 21397  82.5157  93.7443 0014800 205.2562 154.7940 15.00107102790875
COSMOS 2151             
1 21422U 91042A   24305.78625938  .00007639  00000+0  65865-3 0  9996
2 21422  82.5014 199.0136 0011272 292.2884  67.7143 14.97133655789219
SL-14 R/B               
1 21423U 91042B   24306.04677108  .00001625  00000+0  20572-3 0  9998
2 21423  82.4918 322.8955 0018634  65.3044 295.0107 14.81118978801027
ERS-1                   
1 21574U 91050A   24305.87336746  .00001537  00000+0  51169-3 0  9992
2 21574  98.7875 300.7467 0031389 225.4988 134.3633 14.38839474744700
ARIANE 40 R/B           
1 21610U 91050F   24305.77648300  .00001953  00000+0  60547-3 0  9996
2 21610  98.2739   3.6840 0004089 121.9221 238.2367 14.42224338747787
INTERCOSMOS 25          
1 21819U 91086A   24305.84107359  .00003336  00000+0  65365-3 0  9998
2 21819  82.6040 248.0844 1498185  99.8679 277.4256 12.09488571436918
SL-8 R/B                
1 21876U 92008B   24306.47980463  .00000352  00000+0  34575-3 0  9995
2 21876  82.9237 274.5252 0036142  72.8564  47.3369 13.75874803641821
SL-8 R/B                
1 21938U 92020B   24306.38251090  .00000292  00000+0  28766-3 0  9993
2 21938  82.9304 160.1407 0028036 233.6348 299.7591 13.75452835633612
USA 81                  
1 21949U 92023A   24305.79064167  .00001010  00000+0  36878-3 0  9991
2 21949  85.0096  56.3412 0002122 113.2700 246.8716 14.32058455 24093
COSMOS 2219             
1 22219U 92076A   24306.03016663  .00000581  00000+0  33025-3 0  9999
2 22219  71.0612 329.9436 0019981 238.4483 121.4689 14.13945397648927
SL-16 R/B               
1 22220U 92076B   24305.83720517  .00000543  00000+0  29533-3 0  9995
2 22220  70.9987 148.5764 0011170 135.0801 311.0455 14.16725555651881
COSMOS 2221             
1 22236U 92080A   24305.70647010  .00007436  00000+0  70915-3 0  9997
2 22236  82.5093  31.1384 0015940  53.2862 306.9820 14.93126098706991
SL-16 R/B               
1 22285U 92093B   24305.73683798  .00000476  00000+0  26858-3 0  9995
2 22285  71.0212 321.1184 0005539 317.2788  42.7904 14.15319278643260
COSMOS 2228             
1 22286U 92094A   24305.79756006  .00007625  00000+0  71511-3 0  9995
2 22286  82.5202 349.0506 0019936 159.3432 200.8600 14.93732821702233
SL-16 R/B               
1 22566U 93016B   24305.87074600  .00000320  00000+0  18896-3 0  9995
2 22566  71.0078 172.2682 0010868 342.4646  17.6100 14.15189426632306
COSMOS 2242             
1 22626U 93024A   24306.20162791  .00008692  00000+0  82452-3 0  9997
2 22626  82.5239  17.5985 0017762 160.0938 200.0979 14.93325782706974
SL-16 R/B               
1 22803U 93059B   24305.52998604  .00000288  00000+0  16669-3 0  9996
2 22803  70.9910 333.1198 0019399 246.7710 113.1371 14.17097431609783
ARIANE 40 R/B           
1 22830U 93061H   24306.13685233  .00001383  00000+0  52759-3 0  9995
2 22830  98.5571  12.0681 0009894 306.8915  53.1362 14.32369508623688
COSMOS 2278             
1 23087U 94023A   24306.48443207  .00000586  00000+0  33193-3 0  9995
2 23087  71.0508 126.8504 0007069  55.0676 305.1110 14.14183530575323
SL-16 R/B               
1 23088U 94023B   24306.19946357  .00000591  00000+0  33045-3 0  9990
2 23088  71.0021  27.1861 0004896 305.0091  55.0571 14.14903015576553
SL-16 R/B               
1 23343U 94074B   24305.60615417  .00002350  00000+0  32851-3 0  9994
2 23343  97.7716 344.0003 0007517  38.5103 122.5383 14.78511517614429
SL-16 R/B               
1 23405U 94077B   24305.31303579  .00000037  00000+0  43504-4 0  9995
2 23405  70.9824 312.4831 0004092 234.2375 125.8368 14.15450874546275
ARIANE 40+ R/B          
1 23561U 95021B   24306.44400744  .00001881  00000+0  62136-3 0  9994
2 23561  98.5132  11.9983 0007015 170.7756 208.0303 14.39169277548501
SL-16 R/B               
1 23705U 95058B   24305.86138041  .00000514  00000+0  28774-3 0  9999
2 23705  71.0196 136.9683 0011818 161.9641 198.1903 14.15390217497976
SL-16 R/B               
1 24298U 96051B   24305.83479322  .00000021  00000+0  37887-4 0  9997
2 24298  70.7875 140.0519 0014211 149.0183 211.1778 14.12455183451917
ORBVIEW 2 (SEASTAR)     
1 24883U 97037A   24306.39736800  .00002037  00000+0  73327-3 0  9998
2 24883  98.7956  88.5885 0003125  79.8192 280.3345 14.34867642437970
SL-16 R/B               
1 25400U 98043G   24306.45485565  .00000594  00000+0  26811-3 0  9990
2 25400  98.7587 247.2712 0010101  11.9893 348.1525 14.25852913368922
SL-16 R/B               
1 25407U 98045B   24305.90095668  .00000035  00000+0  41788-4 0  9990
2 25407  71.0096 139.9189 0005648  44.6869 315.4708 14.16065714357461
ISS (ZARYA)             
1 25544U 98067A   24306.50807874  .00034182  00000+0  58358-3 0  9993
2 25544  51.6411 355.1671 0009085 125.7823  16.3125 15.50949482479845
CZ-4B R/B               
1 25732U 99025C   24306.35444152  .00000571  00000+0  29801-3 0  9992
2 25732  98.7347 349.4326 0036570 323.6681  46.7955 14.18073131318388
OKEAN-O                 
1 25860U 99039A   24306.10658351  .00003274  00000+0  44966-3 0  9992
2 25860  98.0187 358.1716 0001763 105.8157 254.3248 14.79056499361485
SL-16 R/B               
1 25861U 99039B   24306.37648046  .00003070  00000+0  40592-3 0  9997
2 25861  98.0714 353.2830 0016207  58.6698 301.6098 14.80627801363966
DELTA 2 R/B             
1 25876U 99041E   24305.87573715  .00002973  00000+0  52370-3 0  9998
2 25876  51.7619 110.3004 0512397 333.4615  24.0889 14.09388005293340
HELIOS 1B               
1 25977U 99064A   24305.57546588  .00004606  00000+0  54397-3 0  9996
2 25977  98.2211 181.6919 0000745 135.8324 224.2949 14.85198900611850
TERRA                   
1 25994U 99068A   24306.51167234  .00002504  00000+0  52920-3 0  9996
2 25994  98.0323   5.8800 0001155 318.8191 154.0695 14.60167877323207
SL-16 R/B               
1 26070U 00006B   24305.71820725  .00000467  00000+0  26192-3 0  9996
2 26070  71.0032  56.4028 0017943 219.9174 140.0631 14.15698976278640
TITAN 4B R/B            
1 26474U 00047B   24306.08902075  .00011378  00000+0  80280-3 0  9990
2 26474  67.9933 343.3318 0050255 238.7577 120.8641 15.04186838318618
ENVISAT                 
1 27386U 02009A   24306.53486859  .00000919  00000+0  31304-3 0  9992
2 27386  98.3017 262.9792 0001341  84.7132  30.9214 14.38738321188328
IDEFIX & ARIANE 42P R/B 
1 27422U 02021B   24305.84757770  .00001699  00000+0  66909-3 0  9998
2 27422  98.5381 240.8732 0011331 196.8377 163.2431 14.30430238173402
AQUA                    
1 27424U 02022A   24306.53481338  .00005309  00000+0  11106-2 0  9992
2 27424  98.3471 256.5948 0002192  61.9036   3.6347 14.60213548196756
CZ-4B R/B               
1 27432U 02024C   24305.97544222  .00000368  00000+0  21362-3 0  9998
2 27432  98.9591 348.8557 0049949 344.7044  63.0295 14.14396957159528
MIDORI II (ADEOS-II)    
1 27597U 02056A   24305.83263224  .00001580  00000+0  64660-3 0  9995
2 27597  98.7074 252.0710 0001667  44.0535 316.0779 14.28657743139761
